NORAD_CAT_ID,OBJECT_NAME,OBJECT_TYPE,EPOCH,MEAN_MOTION,ECCENTRICITY,INCLINATION,RA_OF_ASC_NODE,ARG_OF_PERICENTER,MEAN_ANOMALY,BSTAR,MEAN_MOTION_DOT,MEAN_MOTION_DDOT,TLE_LINE0,TLE_LINE1,TLE_LINE2,SEMIMAJOR_AXIS,PERIOD,APOGEE,PERIGEE,DECAYED
55791.0,STARLINK-5807,PAYLOAD,2023-06-22 19:24:04,15.69932794,0.0003469,69.9982,202.9649,262.6291,97.451,1.4497e-05,1.531e-05,0.0,0 STARLINK-5807,1 55791U 23028BC  23173.80839077  .00001531  00000-0  14497-4 0  9999,2 55791  69.9982 202.9649 0003469 262.6291  97.4510 15.69932794 18093,6737.226,91.724,361.428,356.754,0.0
55791.0,STARLINK-5807,PAYLOAD,2023-06-23 04:34:36,15.69926087,0.0003002,69.9995,201.8916,256.1674,103.9188,9.3238e-06,9.09e-06,0.0,0 STARLINK-5807,1 55791U 23028BC  23174.19069678  .00000909  00000-0  93238-5 0  9993,2 55791  69.9995 201.8916 0003002 256.1674 103.9188 15.69926087 18157,6737.245,91.724,361.133,357.088,0.0
55791.0,STARLINK-5807,PAYLOAD,2023-06-23 13:45:08,15.69910937,0.000297,69.9986,200.8158,266.11,93.9756,-1.2398e-05,-1.702e-05,0.0,0 STARLINK-5807,1 55791U 23028BC  23174.57300945 -.00001702  00000-0 -12398-4 0  9991,2 55791  69.9986 200.8158 0002970 266.1100  93.9756 15.69910937 18215,6737.289,91.725,361.155,357.153,0.0
55791.0,STARLINK-5807,PAYLOAD,2023-06-24 05:02:39,15.69913727,0.0003393,69.9987,199.024,263.2712,96.8097,-4.7817e-06,-7.87e-06,0.0,0 STARLINK-5807,1 55791U 23028BC  23175.21017555 -.00000787  00000-0 -47817-5 0  9992,2 55791  69.9987 199.0240 0003393 263.2712  96.8097 15.69913727 18315,6737.281,91.725,361.432,356.86,0.0
55791.0,STARLINK-5807,PAYLOAD,2023-06-24 14:13:09,15.69925062,0.0003108,69.9976,197.947,267.0218,93.0622,7.0449e-06,6.34e-06,0.0,0 STARLINK-5807,1 55791U 23028BC  23175.59246751  .00000634  00000-0  70449-5 0  9991,2 55791  69.9976 197.9470 0003108 267.0218  93.0622 15.69925062 18376,6737.248,91.724,361.207,357.019,0.0
55791.0,STARLINK-5807,PAYLOAD,2023-06-26 02:55:12,15.69918742,0.0002939,69.9986,193.6486,259.3967,100.6898,7.6325e-06,7.05e-06,0.0,0 STARLINK-5807,1 55791U 23028BC  23177.12167240  .00000705  00000-0  76325-5 0  9995,2 55791  69.9986 193.6486 0002939 259.3967 100.6898 15.69918742 18617,6737.266,91.724,361.112,357.151,0.0
55791.0,STARLINK-5807,PAYLOAD,2023-06-27 09:30:14,15.6992219,0.0003508,69.9972,190.0654,268.8723,91.2071,1.0885e-05,1.096e-05,0.0,0 STARLINK-5807,1 55791U 23028BC  23178.39600380  .00001096  00000-0  10885-4 0  9994,2 55791  69.9972 190.0654 0003508 268.8723  91.2071 15.69922190 18810,6737.257,91.724,361.485,356.758,0.0
55791.0,STARLINK-5807,PAYLOAD,2023-06-28 09:58:16,15.69926473,0.000279,69.9987,187.2012,260.5022,99.5858,8.2169e-06,7.76e-06,0.0,0 STARLINK-5807,1 55791U 23028BC  23179.41547204  .00000776  00000-0  82169-5 0  9992,2 55791  69.9987 187.2012 0002790 260.5022  99.5858 15.69926473 18974,6737.244,91.724,360.989,357.23,0.0
55791.0,STARLINK-5807,PAYLOAD,2023-06-29 02:47:33,15.69920276,0.0003304,69.9977,185.2296,268.033,92.0487,-2.9207e-06,-5.64e-06,0.0,0 STARLINK-5807,1 55791U 23028BC  23180.11636124 -.00000564  00000-0 -29207-5 0  9992,2 55791  69.9977 185.2296 0003304 268.0330  92.0487 15.69920276 19086,6737.262,91.724,361.353,356.901,0.0
55791.0,STARLINK-5807,PAYLOAD,2023-06-29 10:26:18,15.69925792,0.0003185,69.9979,184.3331,267.2548,92.8283,-3.3264e-07,-2.53e-06,0.0,0 STARLINK-5807,1 55791U 23028BC  23180.43494047 -.00000253  00000-0 -33264-6 0  9997,2 55791  69.9979 184.3331 0003185 267.2548  92.8283 15.69925792 19133,6737.246,91.724,361.257,356.965,0.0
55791.0,STARLINK-5807,PAYLOAD,2023-06-30 12:26:05,15.69927673,0.0003533,69.9967,181.2886,259.1825,100.8973,-5.1646e-06,-8.34e-06,0.0,0 STARLINK-5807,1 55791U 23028BC  23181.51812330 -.00000834  00000-0 -51646-5 0  9994,2 55791  69.9967 181.2886 0003533 259.1825 100.8973 15.69927673 19301,6737.241,91.724,361.486,356.726,0.0
55791.0,STARLINK-5807,PAYLOAD,2023-07-01 02:11:52,15.69910956,0.0003417,69.9983,179.6763,259.5012,100.5799,1.4993e-07,-1.95e-06,0.0,0 STARLINK-5807,1 55791U 23028BC  23182.09158511 -.00000195  00000-0  14993-6 0  9996,2 55791  69.9983 179.6763 0003417 259.5012 100.5799 15.69910956 19395,6737.289,91.725,361.456,356.852,0.0
55791.0,STARLINK-5807,PAYLOAD,2023-07-01 08:18:52,15.69919525,0.0003016,69.9972,178.9549,277.2679,82.8174,1.6153e-05,1.73e-05,0.0,0 STARLINK-5807,1 55791U 23028BC  23182.34644500  .00001730  00000-0  16153-4 0  9995,2 55791  69.9972 178.9549 0003016 277.2679  82.8174 15.69919525 19433,6737.264,91.724,361.161,357.097,0.0
55791.0,STARLINK-5807,PAYLOAD,2023-07-02 08:46:54,15.69928327,0.0003244,69.998,176.0933,260.9466,99.1362,1.2244e-05,1.26e-05,0.0,0 STARLINK-5807,1 55791U 23028BC  23183.36590498  .00001260  00000-0  12244-4 0  9999,2 55791  69.9980 176.0933 0003244 260.9466  99.1362 15.69928327 19591,6737.239,91.724,361.29,356.918,0.0
55791.0,STARLINK-5807,PAYLOAD,2023-07-03 01:36:11,15.69915088,0.0003351,69.9981,174.1227,262.1291,97.9524,4.0625e-06,2.76e-06,0.0,0 STARLINK-5807,1 55791U 23028BC  23184.06679954  .00000276  00000-0  40625-5 0  9993,2 55791  69.9981 174.1227 0003351 262.1291  97.9524 15.69915088 19705,6737.277,91.725,361.4,356.884,0.0
55791.0,STARLINK-5807,PAYLOAD,2023-07-03 09:14:56,15.69928816,0.000334,69.9972,173.2273,265.4086,94.6728,-1.9493e-06,-4.47e-06,0.0,0 STARLINK-5807,1 55791U 23028BC  23184.38537645 -.00000447  00000-0 -19493-5 0  9999,2 55791  69.9972 173.2273 0003340 265.4086  94.6728 15.69928816 19750,6737.238,91.724,361.353,356.852,0.0
55791.0,STARLINK-5807,PAYLOAD,2023-07-03 16:53:42,15.69919321,0.0003196,69.9976,172.3316,266.5439,93.5391,-6.2426e-06,-9.63e-06,0.0,0 STARLINK-5807,1 55791U 23028BC  23184.70396681 -.00000963  00000-0 -62426-5 0  9995,2 55791  69.9976 172.3316 0003196 266.5439  93.5391 15.69919321 19806,6737.265,91.724,361.283,356.977,0.0
55791.0,STARLINK-5807,PAYLOAD,2023-07-04 09:42:58,15.69929649,0.0003324,69.9981,170.3613,266.278,93.8036,6.0461e-06,5.14e-06,0.0,0 STARLINK-5807,1 55791U 23028BC  23185.40484200  .00000514  00000-0  60461-5 0  9995,2 55791  69.9981 170.3613 0003324 266.2780  93.8036 15.69929649 19914,6737.235,91.724,361.34,356.861,0.0
55791.0,STARLINK-5807,PAYLOAD,2023-07-05 01:00:29,15.69920296,0.0003543,69.9983,168.57,265.292,94.7871,7.5589e-06,6.96e-06,0.0,0 STARLINK-5807,1 55791U 23028BC  23186.04201334  .00000696  00000-0  75589-5 0  9999,2 55791  69.9983 168.5700 0003543 265.2920  94.7871 15.69920296 20019,6737.262,91.724,361.514,356.74,0.0
55791.0,STARLINK-5807,PAYLOAD,2023-07-06 01:28:32,15.69913461,0.0003512,69.9974,165.7039,269.8781,90.2012,1.4475e-06,-3.9e-07,0.0,0 STARLINK-5807,1 55791U 23028BC  23187.06149059 -.00000039  00000-0  14475-5 0  9996,2 55791  69.9974 165.7039 0003512 269.8781  90.2012 15.69913461 20175,6737.282,91.725,361.513,356.78,0.0
55791.0,STARLINK-5807,PAYLOAD,2023-07-06 10:39:05,15.69900596,0.0002746,69.9988,164.6304,273.9745,86.1137,-2.7398e-05,-3.502e-05,0.0,0 STARLINK-5807,1 55791U 23028BC  23187.44380980 -.00003502  00000-0 -27398-4 0  9994,2 55791  69.9988 164.6304 0002746 273.9745  86.1137 15.69900596 20231,6737.318,91.726,361.033,357.333,0.0
55791.0,STARLINK-5807,PAYLOAD,2023-07-07 05:00:04,15.69931244,0.0003256,69.998,162.4781,278.6734,81.4093,1.5958e-05,1.707e-05,0.0,0 STARLINK-5807,1 55791U 23028BC  23188.20838122  .00001707  00000-0  15958-4 0  9997,2 55791  69.9980 162.4781 0003256 278.6734  81.4093 15.69931244 20351,6737.231,91.724,361.289,356.902,0.0
55791.0,STARLINK-5807,PAYLOAD,2023-07-07 23:21:06,15.69915478,0.0002585,69.9992,160.3305,269.8734,90.2165,2.1824e-05,2.411e-05,0.0,0 STARLINK-5807,1 55791U 23028BC  23188.97298796  .00002411  00000-0  21824-4 0  9990,2 55791  69.9992 160.3305 0002585 269.8734  90.2165 15.69915478 20471,6737.276,91.725,360.882,357.399,0.0
55791.0,STARLINK-5807,PAYLOAD,2023-07-09 04:24:23,15.69934925,0.0003055,69.9982,156.9262,271.2806,88.804,-1.2041e-06,-3.57e-06,0.0,0 STARLINK-5807,1 55791U 23028BC  23190.18359976 -.00000357  00000-0 -12041-5 0  9995,2 55791  69.9982 156.9262 0003055 271.2806  88.8040 15.69934925 20667,6737.22,91.724,361.143,357.027,0.0
55791.0,STARLINK-5807,PAYLOAD,2023-07-10 00:17:09,15.69922448,0.000329,69.9982,154.5971,269.7376,90.3442,4.1015e-06,2.8e-06,0.0,0 STARLINK-5807,1 55791U 23028BC  23191.01191995  .00000280  00000-0  41015-5 0  9999,2 55791  69.9982 154.5971 0003290 269.7376  90.3442 15.69922448 20798,6737.256,91.724,361.337,356.904,0.0
55791.0,STARLINK-5807,PAYLOAD,2023-07-10 06:24:09,15.69934543,0.0003383,69.9979,153.8799,274.7716,85.3093,1.2829e-05,1.331e-05,0.0,0 STARLINK-5807,1 55791U 23028BC  23191.26677701  .00001331  00000-0  12829-4 0  9998,2 55791  69.9979 153.8799 0003383 274.7716  85.3093 15.69934543 20831,6737.221,91.724,361.365,356.807,0.0
55791.0,STARLINK-5807,PAYLOAD,2023-07-10 23:13:27,15.69920317,0.0003029,69.9985,151.9115,268.1655,91.9194,-8.068e-06,-1.182e-05,0.0,0 STARLINK-5807,1 55791U 23028BC  23191.96767643 -.00001182  00000-0 -80680-5 0  9997,2 55791  69.9985 151.9115 0003029 268.1655  91.9194 15.69920317 20946,6737.262,91.724,361.168,357.086,0.0
55791.0,STARLINK-5807,PAYLOAD,2023-07-11 06:52:12,15.69926146,0.000326,69.9987,151.0167,258.7101,101.3728,-1.5632e-06,-4.01e-06,0.0,0 STARLINK-5807,1 55791U 23028BC  23192.28625462 -.00000401  00000-0 -15632-5 0  9993,2 55791  69.9987 151.0167 0003260 258.7101 101.3728 15.69926146 20994,6737.245,91.724,361.307,356.914,0.0
55791.0,STARLINK-5807,PAYLOAD,2023-07-12 07:20:14,15.69926628,0.0003362,69.9983,148.1484,267.6283,92.4528,5.3355e-06,4.29e-06,0.0,0 STARLINK-5807,1 55791U 23028BC  23193.30571897  .00000429  00000-0  53355-5 0  9991,2 55791  69.9983 148.1484 0003362 267.6283  92.4528 15.69926628 21154,6737.244,91.724,361.374,356.844,0.0
55791.0,STARLINK-5807,PAYLOAD,2023-07-13 07:48:16,15.69920563,0.0003435,69.998,145.2836,260.522,99.5587,6.0087e-07,-1.41e-06,0.0,0 STARLINK-5807,1 55791U 23028BC  23194.32519099 -.00000141  00000-0  60087-6 0  9993,2 55791  69.9980 145.2836 0003435 260.5220  99.5587 15.69920563 21317,6737.261,91.724,361.441,356.812,0.0
